[Satellite]
VERSION=1.1
NAME=FIREBIRD 4
NICKNAME=FIREBIRD 4
TLE1=1 40378U 15003C   19317.68886369  .00002382  00000-0  96205-4 0  9997
TLE2=2 40378  99.1188 328.4334 0125259 317.6272  41.5335 15.19296261264396
STATUS=0
